[{"OBJECT_NAME":"ORBCOMM FM06","OBJECT_ID":"1997-084G","EPOCH":"2026-03-09T15:06:31.906944","MEAN_MOTION":14.47270413,"ECCENTRICITY":0.0001937,"INCLINATION":45.0122,"RA_OF_ASC_NODE":171.8858,"ARG_OF_PERICENTER":196.1809,"MEAN_ANOMALY":301.713,"EPHEMERIS_TYPE":0,"CLASSIFICATION_TYPE":"U","NORAD_CAT_ID":25118,"ELEMENT_SET_NO":999,"REV_AT_EPOCH":47996,"BSTAR":0.00064878,"MEAN_MOTION_DOT":2.251e-5,"MEAN_MOTION_DDOT":0},{"OBJECT_NAME":"THOR BURNER 2 R\/B","OBJECT_ID":"1966-082B","EPOCH":"2026-03-09T22:43:41.788416","MEAN_MOTION":14.46688566,"ECCENTRICITY":0.01108888,"INCLINATION":98.2287,"RA_OF_ASC_NODE":226.3915,"ARG_OF_PERICENTER":149.3995,"MEAN_ANOMALY":211.3729,"EPHEMERIS_TYPE":0,"CLASSIFICATION_TYPE":"U","NORAD_CAT_ID":2422,"ELEMENT_SET_NO":999,"REV_AT_EPOCH":10092,"BSTAR":0.00021515318,"MEAN_MOTION_DOT":7.93e-6,"MEAN_MOTION_DDOT":0}]
